IRIDIUM 173             
1 43925U 19002D   24269.94443172  .00000056  00000+0  13070-4 0  9997
2 43925  86.3917 256.4903 0002294  85.3151 274.8307 14.34218007298772
IRIDIUM 180             
1 43922U 19002A   24269.89369222  .00000367  00000+0  12399-3 0  9998
2 43922  86.3915 256.5372 0002326  84.4168 275.7293 14.34220412298791
IRIDIUM 168             
1 43924U 19002C   24269.95711726  .00000110  00000+0  32300-4 0  9998
2 43924  86.3919 256.5703 0002343  87.1393 273.0071 14.34218200298780
IRIDIUM 169             
1 43926U 19002E   24269.49429009  .00000359  00000+0  11079-3 0  9993
2 43926  86.4171 288.3306 0000558 135.2500 224.8743 14.38612268299693
IRIDIUM 172             
1 43927U 19002F   24269.93808967  .00000070  00000+0  17815-4 0  9992
2 43927  86.3915 256.4989 0002327  89.5398 270.6064 14.34218260298777
IRIDIUM 176             
1 43923U 19002B   24269.91396569  .00001183  00000+0  18367-3 0  9994
2 43923  86.6046 256.5421 0002695  84.6318 275.5206 14.72263059306667
